ISS (NAUKA)             
1 49044U 21066A   25311.19511068  .00011482  00000+0  21019-3 0  9990
2 49044  51.6334 318.4356 0005154  25.9626 334.1621 15.49813276230449
FREGAT DEB              
1 49271U 11037PF  25311.26506632  .00008484  00000+0  18113-1 0  9995
2 49271  51.6284 304.3258 0884401 147.3816 218.4970 12.33848769197550
CSS (WENTIAN)           
1 53239U 22085A   25311.04013910  .00032955  00000+0  38997-3 0  9991
2 53239  41.4666 233.4859 0005699 336.2635  23.7940 15.60556280173848
CSS (MENGTIAN)          
1 54216U 22143A   25311.04013910  .00032955  00000+0  38997-3 0  9992
2 54216  41.4666 233.4859 0005699 336.2635  23.7940 15.60556280158645
SOYUZ-MS 27             
1 63520U 25072A   25311.19511068  .00011482  00000+0  21019-3 0  9996
2 63520  51.6334 318.4356 0005154  25.9626 334.1621 15.49813276 20205
SHENZHOU-20 (SZ-20)     
1 63632U 25082A   25311.04013910  .00032955  00000+0  38997-3 0  9999
2 63632  41.4666 233.4859 0005699 336.2635  23.7940 15.60556280255308
PROGRESS-MS 31          
1 64751U 25146A   25311.19511068  .00011482  00000+0  21019-3 0  9995
2 64751  51.6334 318.4356 0005154  25.9626 334.1621 15.49813276  6756
TIANZHOU-9              
1 64786U 25149A   25311.04013910  .00032955  00000+0  38997-3 0  9994
2 64786  41.4666 233.4859 0005699 336.2635  23.7940 15.60556280255309
CREW DRAGON 11          
1 65077U 25166A   25311.19511068  .00011482  00000+0  21019-3 0  9999
2 65077  51.6334 318.4356 0005154  25.9626 334.1621 15.49813276  2147
DRAGON CRS-33           
1 65304U 25186A   25311.19511068  .00011482  00000+0  21019-3 0  9994
2 65304  51.6334 318.4356 0005154  25.9626 334.1621 15.49813276   115
